ORBCOMM FM103 [+]       
1 40091U 14040F   23299.10895690  .00000812  00000+0  22036-3 0  9992
2 40091  47.0068 326.6132 0001400  18.7899 341.3037 14.56001264476592
ORBCOMM FM114 [+]       
1 41179U 15081A   23299.21288097  .00001093  00000+0  28356-3 0  9998
2 41179  47.0028 235.4763 0001044 100.1601 259.9401 14.56012687416970
ORBCOMM FM119 [-]       
1 41180U 15081B   23298.97433383  .00000763  00000+0  20947-3 0  9993
2 41180  46.9997 145.7916 0001561 199.4057 160.6769 14.55995192418199
ORBCOMM FM105 [-]       
1 41181U 15081C   23299.51415938  .00000428  00000+0  16950-3 0  9998
2 41181  47.0010  92.3562 0001857 172.1597 187.9312 14.44069022414045
ORBCOMM FM110 [+]       
1 41182U 15081D   23299.12123212  .00001273  00000+0  32406-3 0  9990
2 41182  47.0017 235.3328 0002510 304.9048  55.1600 14.56019710416832
ORBCOMM FM118 [+]       
1 41183U 15081E   23299.23572100  .00001291  00000+0  32817-3 0  9993
2 41183  47.0038 235.0599 0002715 302.6922  57.3700 14.56024305416950
ORBCOMM FM112 [+]       
1 41184U 15081F   23299.56988130  .00000742  00000+0  20468-3 0  9993
2 41184  46.9978 142.2428 0001550 178.0575 182.0316 14.55992899418229
ORBCOMM FM113 [+]       
1 41185U 15081G   23298.99706730  .00000914  00000+0  24329-3 0  9995
2 41185  46.9997 145.1615 0001192 195.4131 164.6717 14.56014017418122
